start=new Date('2023-07-01T00:00:00.000Z').valueOf();
sats=[{"MEAN_MOTION_DDOT":"0.0000000000000","INCLINATION":"53.0547","MEAN_MOTION":"15.06402010","OBJECT_TYPE":"PAYLOAD","PERIOD":"95.592","ECCENTRICITY":"0.00013580","EPHEMERIS_TYPE":"0","CENTER_NAME":"EARTH","TIME_SYSTEM":"UTC","TLE_LINE1":"1 47829U 21018AU  23181.61197319  .00003301  00000-0  24036-3 0  9999","ARG_OF_PERICENTER":"87.2381","TLE_LINE2":"2 47829  53.0547 354.8254 0001358  87.2381 272.8764 15.06402010127941","EPOCH":"2023-06-30T14:41:14.483616","NORAD_CAT_ID":"47829","MEAN_MOTION_DOT":"0.00003301","SITE":"AFETR","FILE":"3946197","MEAN_ANOMALY":"272.8764","PERIAPSIS":"546.267","MEAN_ELEMENT_THEORY":"SGP4","ELEMENT_SET_NO":"999","APOAPSIS":"548.148","REF_FRAME":"TEME","GP_ID":"234636661","DECAY_DATE":null,"SEMIMAJOR_AXIS":"6925.342","LAUNCH_DATE":"2021-03-11","OBJECT_NAME":"STARLINK-2416","OBJECT_ID":"2021-018AU","BSTAR":"0.00024036000000","COUNTRY_CODE":"US","REV_AT_EPOCH":"12794","RCS_SIZE":"LARGE","CLASSIFICATION_TYPE":"U","RA_OF_ASC_NODE":"354.8254"},{"DECAY_DATE":null,"GP_ID":"234636163","SEMIMAJOR_AXIS":"6925.344","LAUNCH_DATE":"2021-03-11","OBJECT_NAME":"STARLINK-2419","MEAN_ELEMENT_THEORY":"SGP4","ELEMENT_SET_NO":"999","REF_FRAME":"TEME","APOAPSIS":"548.501","CLASSIFICATION_TYPE":"U","RA_OF_ASC_NODE":"354.5447","BSTAR":"0.00023202000000","OBJECT_ID":"2021-018AV","COUNTRY_CODE":"US","RCS_SIZE":"LARGE","REV_AT_EPOCH":"12795","INCLINATION":"53.0548","MEAN_MOTION":"15.06401498","MEAN_MOTION_DDOT":"0.0000000000000","OBJECT_TYPE":"PAYLOAD","PERIOD":"95.592","SITE":"AFETR","FILE":"3946197","PERIAPSIS":"545.917","MEAN_ANOMALY":"271.7262","TIME_SYSTEM":"UTC","CENTER_NAME":"EARTH","ECCENTRICITY":"0.00018660","EPHEMERIS_TYPE":"0","ARG_OF_PERICENTER":"88.3941","TLE_LINE1":"1 47830U 21018AV  23181.67463739  .00003176  00000-0  23202-3 0  9993","EPOCH":"2023-06-30T16:11:28.670496","TLE_LINE2":"2 47830  53.0548 354.5447 0001866  88.3941 271.7262 15.06401498127954","MEAN_MOTION_DOT":"0.00003176","NORAD_CAT_ID":"47830"},{"PERIAPSIS":"546.456","MEAN_ANOMALY":"275.6862","SITE":"AFETR","FILE":"3946197","EPOCH":"2023-06-30T16:12:08.054208","TLE_LINE2":"2 47831  53.0540 329.5448 0001073  84.4249 275.6862 15.06404759128300","MEAN_MOTION_DOT":"0.00004664","NORAD_CAT_ID":"47831","TIME_SYSTEM":"UTC","CENTER_NAME":"EARTH","ECCENTRICITY":"0.00010730","EPHEMERIS_TYPE":"0","ARG_OF_PERICENTER":"84.4249","TLE_LINE1":"1 47831U 21018AW  23181.67509322  .00004664  00000-0  33174-3 0  9995","PERIOD":"95.592","INCLINATION":"53.0540","MEAN_MOTION":"15.06404759","MEAN_MOTION_DDOT":"0.0000000000000","OBJECT_TYPE":"PAYLOAD","RA_OF_ASC_NODE":"329.5448","CLASSIFICATION_TYPE":"U","REV_AT_EPOCH":"12830","RCS_SIZE":"LARGE","BSTAR":"0.00033174000000","OBJECT_ID":"2021-018AW","COUNTRY_CODE":"US","LAUNCH_DATE":"2021-03-11","OBJECT_NAME":"STARLINK-2420","SEMIMAJOR_AXIS":"6925.334","GP_ID":"234636161","DECAY_DATE":null,"ELEMENT_SET_NO":"999","REF_FRAME":"TEME","APOAPSIS":"547.942","MEAN_ELEMENT_THEORY":"SGP4"},{"GP_ID":"234636663","DECAY_DATE":null,"SEMIMAJOR_AXIS":"6925.356","OBJECT_NAME":"STARLINK-2422","LAUNCH_DATE":"2021-03-11","MEAN_ELEMENT_THEORY":"SGP4","REF_FRAME":"TEME","APOAPSIS":"548.282","ELEMENT_SET_NO":"999","CLASSIFICATION_TYPE":"U","RA_OF_ASC_NODE":"344.7363","COUNTRY_CODE":"US","BSTAR":"-0.00008088000000","OBJECT_ID":"2021-018AX","REV_AT_EPOCH":"12809","RCS_SIZE":"LARGE","OBJECT_TYPE":"PAYLOAD","INCLINATION":"53.0551","MEAN_MOTION":"15.06397640","MEAN_MOTION_DDOT":"0.0000000000000","PERIOD":"95.592","FILE":"3946197","SITE":"AFETR","PERIAPSIS":"546.160","MEAN_ANOMALY":"279.2734","ARG_OF_PERICENTER":"80.8429","TLE_LINE1":"1 47832U 21018AX  23181.63131882 -.00001486  00000-0 -80880-4 0  9992","TIME_SYSTEM":"UTC","CENTER_NAME":"EARTH","ECCENTRICITY":"0.00015320","EPHEMERIS_TYPE":"0","MEAN_MOTION_DOT":"-0.00001486","NORAD_CAT_ID":"47832","EPOCH":"2023-06-30T15:09:05.946048","TLE_LINE2":"2 47832  53.0551 344.7363 0001532  80.8429 279.2734 15.06397640128092"},{"PERIAPSIS":"546.142","MEAN_ANOMALY":"302.3478","SITE":"AFETR","FILE":"3946178","EPOCH":"2023-06-30T15:46:14.112192","TLE_LINE2":"2 47833  53.0543 344.6222 0001563  57.7662 302.3478 15.06396316128095","MEAN_MOTION_DOT":"-0.00000831","NORAD_CAT_ID":"47833","CENTER_NAME":"EARTH","TIME_SYSTEM":"UTC","ECCENTRICITY":"0.00015630","EPHEMERIS_TYPE":"0","ARG_OF_PERICENTER":"57.7662","TLE_LINE1":"1 47833U 21018AY  23181.65710778 -.00000831  00000-0 -36920-4 0  9991","PERIOD":"95.592","MEAN_MOTION":"15.06396316","INCLINATION":"53.0543","MEAN_MOTION_DDOT":"0.0000000000000","OBJECT_TYPE":"PAYLOAD","RA_OF_ASC_NODE":"344.6222","CLASSIFICATION_TYPE":"U","REV_AT_EPOCH":"12809","RCS_SIZE":"LARGE","BSTAR":"-0.00003692000000","OBJECT_ID":"2021-018AY","COUNTRY_CODE":"US","LAUNCH_DATE":"2021-03-11","OBJECT_NAME":"STARLINK-2423","GP_ID":"234635853","SEMIMAJOR_AXIS":"6925.360","DECAY_DATE":null,"ELEMENT_SET_NO":"999","REF_FRAME":"TEME","APOAPSIS":"548.307","MEAN_ELEMENT_THEORY":"SGP4"},{"CLASSIFICATION_TYPE":"U","RA_OF_ASC_NODE":"344.5729","BSTAR":"0.00056781000000","OBJECT_ID":"2021-018AZ","COUNTRY_CODE":"US","REV_AT_EPOCH":"12809","RCS_SIZE":"LARGE","GP_ID":"234639245","DECAY_DATE":null,"SEMIMAJOR_AXIS":"6925.319","LAUNCH_DATE":"2021-03-11","OBJECT_NAME":"STARLINK-2424","MEAN_ELEMENT_THEORY":"SGP4","ELEMENT_SET_NO":"999","REF_FRAME":"TEME","APOAPSIS":"547.903","SITE":"AFETR","FILE":"3946291","PERIAPSIS":"546.465","MEAN_ANOMALY":"271.6527","CENTER_NAME":"EARTH","TIME_SYSTEM":"UTC","EPHEMERIS_TYPE":"0","ECCENTRICITY":"0.00010380","ARG_OF_PERICENTER":"88.4581","TLE_LINE1":"1 47834U 21018AZ  23181.66818317  .00008188  00000-0  56781-3 0  9998","EPOCH":"2023-06-30T16:02:11.025888","TLE_LINE2":"2 47834  53.0554 344.5729 0001038  88.4581 271.6527 15.06409628128091","MEAN_MOTION_DOT":"0.00008188","NORAD_CAT_ID":"47834","INCLINATION":"53.0554","MEAN_MOTION":"15.06409628","MEAN_MOTION_DDOT":"0.0000000000000","OBJECT_TYPE":"PAYLOAD","PERIOD":"95.592"},{"EPOCH":"2023-06-30T15:05:48.521184","TLE_LINE2":"2 47835  53.0550 349.8723 0001178  89.6140 270.4983 15.06399888128010","MEAN_MOTION_DOT":"0.00001267","NORAD_CAT_ID":"47835","TIME_SYSTEM":"UTC","CENTER_NAME":"EARTH","ECCENTRICITY":"0.00011780","EPHEMERIS_TYPE":"0","ARG_OF_PERICENTER":"89.6140","TLE_LINE1":"1 47835U 21018BA  23181.62903381  .00001267  00000-0  10392-3 0  9990","PERIAPSIS":"546.398","MEAN_ANOMALY":"270.4983","SITE":"AFETR","FILE":"3946178","PERIOD":"95.592","INCLINATION":"53.0550","MEAN_MOTION":"15.06399888","MEAN_MOTION_DDOT":"0.0000000000000","OBJECT_TYPE":"PAYLOAD","REV_AT_EPOCH":"12801","RCS_SIZE":"LARGE","BSTAR":"0.00010392000000","OBJECT_ID":"2021-018BA","COUNTRY_CODE":"US","RA_OF_ASC_NODE":"349.8723","CLASSIFICATION_TYPE":"U","ELEMENT_SET_NO":"999","REF_FRAME":"TEME","APOAPSIS":"548.030","MEAN_ELEMENT_THEORY":"SGP4","LAUNCH_DATE":"2021-03-11","OBJECT_NAME":"STARLINK-2425","SEMIMAJOR_AXIS":"6925.349","GP_ID":"234635852","DECAY_DATE":null},{"SEMIMAJOR_AXIS":"6925.345","GP_ID":"234636169","DECAY_DATE":null,"OBJECT_NAME":"STARLINK-2426","LAUNCH_DATE":"2021-03-11","MEAN_ELEMENT_THEORY":"SGP4","REF_FRAME":"TEME","APOAPSIS":"548.008","ELEMENT_SET_NO":"999","CLASSIFICATION_TYPE":"U","RA_OF_ASC_NODE":"344.8771","COUNTRY_CODE":"US","BSTAR":"0.00007973200000","OBJECT_ID":"2021-018BB","REV_AT_EPOCH":"12808","RCS_SIZE":"LARGE","OBJECT_TYPE":"PAYLOAD","INCLINATION":"53.0557","MEAN_MOTION":"15.06401022","MEAN_MOTION_DDOT":"0.0000000000000","PERIOD":"95.592","FILE":"3946198","SITE":"AFETR","PERIAPSIS":"546.413","MEAN_ANOMALY":"265.9499","ARG_OF_PERICENTER":"94.1621","TLE_LINE1":"1 47836U 21018BB  23181.62027536  .00000906  00000-0  79732-4 0  9993","CENTER_NAME":"EARTH","TIME_SYSTEM":"UTC","EPHEMERIS_TYPE":"0","ECCENTRICITY":"0.00011520","MEAN_MOTION_DOT":"0.00000906","NORAD_CAT_ID":"47836","EPOCH":"2023-06-30T14:53:11.791104","TLE_LINE2":"2 47836  53.0557 344.8771 0001152  94.1621 265.9499 15.06401022128085"},{"PERIAPSIS":"546.359","MEAN_ANOMALY":"278.5948","SITE":"AFETR","FILE":"3946199","EPOCH":"2023-06-30T16:41:59.385408","TLE_LINE2":"2 47837  53.0548 324.4525 0001221  81.5179 278.5948 15.06402888128385","MEAN_MOTION_DOT":"0.00003834","NORAD_CAT_ID":"47837","CENTER_NAME":"EARTH","TIME_SYSTEM":"UTC","ECCENTRICITY":"0.00012210","EPHEMERIS_TYPE":"0","ARG_OF_PERICENTER":"81.5179","TLE_LINE1":"1 47837U 21018BC  23181.69582622  .00003834  00000-0  27615-3 0  9998","PERIOD":"95.592","INCLINATION":"53.0548","MEAN_MOTION":"15.06402888","MEAN_MOTION_DDOT":"0.0000000000000","OBJECT_TYPE":"PAYLOAD","RA_OF_ASC_NODE":"324.4525","CLASSIFICATION_TYPE":"U","REV_AT_EPOCH":"12838","RCS_SIZE":"LARGE","BSTAR":"0.00027615000000","OBJECT_ID":"2021-018BC","COUNTRY_CODE":"US","LAUNCH_DATE":"2021-03-11","OBJECT_NAME":"STARLINK-2427","DECAY_DATE":null,"GP_ID":"234636684","SEMIMAJOR_AXIS":"6925.340","ELEMENT_SET_NO":"999","REF_FRAME":"TEME","APOAPSIS":"548.050","MEAN_ELEMENT_THEORY":"SGP4"},{"OBJECT_NAME":"STARLINK-2429","LAUNCH_DATE":"2021-03-11","GP_ID":"234633648","SEMIMAJOR_AXIS":"6925.402","DECAY_DATE":null,"APOAPSIS":"547.819","REF_FRAME":"TEME","ELEMENT_SET_NO":"999","MEAN_ELEMENT_THEORY":"SGP4","RA_OF_ASC_NODE":"344.3895","CLASSIFICATION_TYPE":"U","RCS_SIZE":"LARGE","REV_AT_EPOCH":"12810","COUNTRY_CODE":"US","OBJECT_ID":"2021-018BD","BSTAR":"0.00029777000000","PERIOD":"95.593","OBJECT_TYPE":"PAYLOAD","MEAN_MOTION_DDOT":"0.0000000000000","INCLINATION":"53.0547","MEAN_MOTION":"15.06382558","MEAN_ANOMALY":"272.5641","PERIAPSIS":"546.715","FILE":"3946097","SITE":"AFETR","NORAD_CAT_ID":"47838","MEAN_MOTION_DOT":"0.00004155","TLE_LINE2":"2 47838  53.0547 344.3895 0000797  87.5439 272.5641 15.06382558128103","EPOCH":"2023-06-30T17:00:33.947136","TLE_LINE1":"1 47838U 21018BD  23181.70872624  .00004155  00000-0  29777-3 0  9993","ARG_OF_PERICENTER":"87.5439","ECCENTRICITY":"0.00007970","EPHEMERIS_TYPE":"0","TIME_SYSTEM":"UTC","CENTER_NAME":"EARTH"}];
